{"type": "FeatureCollection", "features": [ {"type": "Feature", "properties": {"norad_id": 42741, "name": "EUTELSAT 172B", "group": "eutelsat", "lat": 0.0030516012211250555, "lon": 155.5082773370071, "alt_km": 35786.419972073825, "timestamp": "2025-12-08T17:43:04.566625+00:00", "meta": {"OBJECT_NAME": "EUTELSAT 172B", "OBJECT_ID": "2017-029B", "EPOCH": "2025-12-08T02:26:16.735776", "MEAN_MOTION": 1.00270118, "ECCENTRICITY": 1.898e-05, "INCLINATION": 0.0115, "RA_OF_ASC_NODE": 86.953, "ARG_OF_PERICENTER": 151.0152, "MEAN_ANOMALY": 47.7234, "EPHEMERIS_TYPE": 0, "CLASSIFICATION_TYPE": "U", "NORAD_CAT_ID": 42741, "ELEMENT_SET_NO": 999, "REV_AT_EPOCH": 3181, "BSTAR": 0, "MEAN_MOTION_DOT": -3e-08, "MEAN_MOTION_DDOT": 0}, "tle": {"line1": "1 42741U 17029B   25342.10158259 -.00000003  00000+0  00000+0 0  9996", "line2": "2 42741   0.0115  86.9530 0000189 151.0152  47.7234  1.00270118 31811"}}, "geometry": {"type": "Point", "coordinates": [155.5082773370071, 0.0030516012211250555]}}, {"type": "Feature", "properties": {"norad_id": 44334, "name": "EUTELSAT 7C", "group": "eutelsat", "lat": 0.017596271746315995, "lon": -9.479762855841726, "alt_km": 35791.051662448444, "timestamp": "2025-12-08T17:43:04.566637+00:00", "meta": {"OBJECT_NAME": "EUTELSAT 7C", "OBJECT_ID": "2019-034B", "EPOCH": "2025-12-08T03:21:48.915936", "MEAN_MOTION": 1.00270546, "ECCENTRICITY": 0.00034146, "INCLINATION": 0.0738, "RA_OF_ASC_NODE": 178.3926, "ARG_OF_PERICENTER": 63.0985, "MEAN_ANOMALY": 253.094, "EPHEMERIS_TYPE": 0, "CLASSIFICATION_TYPE": "U", "NORAD_CAT_ID": 44334, "ELEMENT_SET_NO": 999, "REV_AT_EPOCH": 492, "BSTAR": 0, "MEAN_MOTION_DOT": 5.1e-07, "MEAN_MOTION_DDOT": 0}, "tle": {"line1": "1 44334U 19034B   25342.14014949  .00000051  00000+0  00000+0 0  9997", "line2": "2 44334   0.0738 178.3926 0003414  63.0985 253.0940  1.00270546  4920"}}, "geometry": {"type": "Point", "coordinates": [-9.479762855841726, 0.017596271746315995]}}, {"type": "Feature", "properties": {"norad_id": 44624, "name": "EUTELSAT 5 WEST B", "group": "eutelsat", "lat": -0.0018973202257479417, "lon": -21.455028596391095, "alt_km": 35783.81481354522, "timestamp": "2025-12-08T17:43:04.566650+00:00", "meta": {"OBJECT_NAME": "EUTELSAT 5 WEST B", "OBJECT_ID": "2019-067A", "EPOCH": "2025-12-08T06:43:52.065408", "MEAN_MOTION": 1.00270849, "ECCENTRICITY": 0.00035509, "INCLINATION": 0.0653, "RA_OF_ASC_NODE": 339.355, "ARG_OF_PERICENTER": 278.8019, "MEAN_ANOMALY": 275.1006, "EPHEMERIS_TYPE": 0, "CLASSIFICATION_TYPE": "U", "NORAD_CAT_ID": 44624, "ELEMENT_SET_NO": 999, "REV_AT_EPOCH": 2252, "BSTAR": 0, "MEAN_MOTION_DOT": -4e-07, "MEAN_MOTION_DDOT": 0}, "tle": {"line1": "1 44624U 19067A   25342.28046372 -.00000040  00000+0  00000+0 0  9994", "line2": "2 44624   0.0653 339.3550 0003550 278.8019 275.1006  1.00270849 22525"}}, "geometry": {"type": "Point", "coordinates": [-21.455028596391095, -0.0018973202257479417]}}, {"type": "Feature", "properties": {"norad_id": 45027, "name": "EUTELSAT KONNECT", "group": "eutelsat", "lat": -0.06406580785614163, "lon": -9.294748101741973, "alt_km": 35783.4025826033, "timestamp": "2025-12-08T17:43:04.566662+00:00", "meta": {"OBJECT_NAME": "EUTELSAT KONNECT", "OBJECT_ID": "2020-005B", "EPOCH": "2025-12-08T01:39:13.741920", "MEAN_MOTION": 1.00269431, "ECCENTRICITY": 0.00018122, "INCLINATION": 0.0721, "RA_OF_ASC_NODE": 97.1811, "ARG_OF_PERICENTER": 189.2229, "MEAN_ANOMALY": 182.6706, "EPHEMERIS_TYPE": 0, "CLASSIFICATION_TYPE": "U", "NORAD_CAT_ID": 45027, "ELEMENT_SET_NO": 999, "REV_AT_EPOCH": 2242, "BSTAR": 0, "MEAN_MOTION_DOT": 5.2e-07, "MEAN_MOTION_DDOT": 0}, "tle": {"line1": "1 45027U 20005B   25342.06890905  .00000052  00000+0  00000+0 0  9993", "line2": "2 45027   0.0721  97.1811 0001812 189.2229 182.6706  1.00269431 22428"}}, "geometry": {"type": "Point", "coordinates": [-9.294748101741973, -0.06406580785614163]}}, {"type": "Feature", "properties": {"norad_id": 49056, "name": "EUTELSAT QUANTUM", "group": "eutelsat", "lat": 0.0018875181859508742, "lon": 31.241844144211232, "alt_km": 35794.304006955506, "timestamp": "2025-12-08T17:43:04.566674+00:00", "meta": {"OBJECT_NAME": "EUTELSAT QUANTUM", "OBJECT_ID": "2021-069B", "EPOCH": "2025-12-08T06:42:21.457728", "MEAN_MOTION": 1.00271486, "ECCENTRICITY": 0.00036908, "INCLINATION": 0.0319, "RA_OF_ASC_NODE": 52.4153, "ARG_OF_PERICENTER": 217.2785, "MEAN_ANOMALY": 315.8847, "EPHEMERIS_TYPE": 0, "CLASSIFICATION_TYPE": "U", "NORAD_CAT_ID": 49056, "ELEMENT_SET_NO": 999, "REV_AT_EPOCH": 1601, "BSTAR": 0, "MEAN_MOTION_DOT": 1.28e-06, "MEAN_MOTION_DDOT": 0}, "tle": {"line1": "1 49056U 21069B   25342.27941502  .00000128  00000+0  00000+0 0  9997", "line2": "2 49056   0.0319  52.4153 0003690 217.2785 315.8847  1.00271486 16012"}}, "geometry": {"type": "Point", "coordinates": [31.241844144211232, 0.0018875181859508742]}}, {"type": "Feature", "properties": {"norad_id": 53765, "name": "EUTELSAT KONNECT VHTS", "group": "eutelsat", "lat": -0.050880245537056855, "lon": -13.759146699983923, "alt_km": 35790.016014351706, "timestamp": "2025-12-08T17:43:04.566687+00:00", "meta": {"OBJECT_NAME": "EUTELSAT KONNECT VHTS", "OBJECT_ID": "2022-110A", "EPOCH": "2025-12-08T06:46:06.850272", "MEAN_MOTION": 1.0027004, "ECCENTRICITY": 0.00026325, "INCLINATION": 0.0619, "RA_OF_ASC_NODE": 104.5335, "ARG_OF_PERICENTER": 133.3909, "MEAN_ANOMALY": 303.6046, "EPHEMERIS_TYPE": 0, "CLASSIFICATION_TYPE": "U", "NORAD_CAT_ID": 53765, "ELEMENT_SET_NO": 999, "REV_AT_EPOCH": 491, "BSTAR": 0, "MEAN_MOTION_DOT": 2e-07, "MEAN_MOTION_DDOT": 0}, "tle": {"line1": "1 53765U 22110A   25342.28202373  .00000020  00000+0  00000+0 0  9995", "line2": "2 53765   0.0619 104.5335 0002632 133.3909 303.6046  1.00270040  4916"}}, "geometry": {"type": "Point", "coordinates": [-13.759146699983923, -0.050880245537056855]}}, {"type": "Feature", "properties": {"norad_id": 54048, "name": "EUTELSAT HOTBIRD 13F", "group": "eutelsat", "lat": 0.04966424253564988, "lon": -3.478114476932191, "alt_km": 35777.67410796071, "timestamp": "2025-12-08T17:43:04.566700+00:00", "meta": {"OBJECT_NAME": "EUTELSAT HOTBIRD 13F", "OBJECT_ID": "2022-134A", "EPOCH": "2025-12-08T06:49:06.563136", "MEAN_MOTION": 1.00271316, "ECCENTRICITY": 0.00020262, "INCLINATION": 0.0494, "RA_OF_ASC_NODE": 291.7852, "ARG_OF_PERICENTER": 61.5762, "MEAN_ANOMALY": 199.2251, "EPHEMERIS_TYPE": 0, "CLASSIFICATION_TYPE": "U", "NORAD_CAT_ID": 54048, "ELEMENT_SET_NO": 999, "REV_AT_EPOCH": 1146, "BSTAR": 0, "MEAN_MOTION_DOT": 9e-07, "MEAN_MOTION_DDOT": 0}, "tle": {"line1": "1 54048U 22134A   25342.28410374  .00000090  00000+0  00000+0 0  9995", "line2": "2 54048   0.0494 291.7852 0002026  61.5762 199.2251  1.00271316 11463"}}, "geometry": {"type": "Point", "coordinates": [-3.478114476932191, 0.04966424253564988]}}, {"type": "Feature", "properties": {"norad_id": 54225, "name": "EUTELSAT HOTBIRD 13G", "group": "eutelsat", "lat": 0.04281856247677184, "lon": -3.4960362778636855, "alt_km": 35794.183382617586, "timestamp": "2025-12-08T17:43:04.566713+00:00", "meta": {"OBJECT_NAME": "EUTELSAT HOTBIRD 13G", "OBJECT_ID": "2022-146A", "EPOCH": "2025-12-08T06:49:06.563136", "MEAN_MOTION": 1.00270747, "ECCENTRICITY": 0.00019071, "INCLINATION": 0.0495, "RA_OF_ASC_NODE": 236.7003, "ARG_OF_PERICENTER": 310.8753, "MEAN_ANOMALY": 4.9908, "EPHEMERIS_TYPE": 0, "CLASSIFICATION_TYPE": "U", "NORAD_CAT_ID": 54225, "ELEMENT_SET_NO": 999, "REV_AT_EPOCH": 555, "BSTAR": 0, "MEAN_MOTION_DOT": 9e-07, "MEAN_MOTION_DDOT": 0}, "tle": {"line1": "1 54225U 22146A   25342.28410374  .00000090  00000+0  00000+0 0  9995", "line2": "2 54225   0.0495 236.7003 0001907 310.8753   4.9908  1.00270747  5556"}}, "geometry": {"type": "Point", "coordinates": [-3.4960362778636855, 0.04281856247677184]}}, {"type": "Feature", "properties": {"norad_id": 54259, "name": "EUTELSAT 10B", "group": "eutelsat", "lat": -0.05177426231325425, "lon": -6.518148442815765, "alt_km": 35790.71570135565, "timestamp": "2025-12-08T17:43:04.566733+00:00", "meta": {"OBJECT_NAME": "EUTELSAT 10B", "OBJECT_ID": "2022-157A", "EPOCH": "2025-12-08T06:48:14.145984", "MEAN_MOTION": 1.002684, "ECCENTRICITY": 8.883e-05, "INCLINATION": 0.062, "RA_OF_ASC_NODE": 100.9204, "ARG_OF_PERICENTER": 77.2749, "MEAN_ANOMALY": 11.1371, "EPHEMERIS_TYPE": 0, "CLASSIFICATION_TYPE": "U", "NORAD_CAT_ID": 54259, "ELEMENT_SET_NO": 999, "REV_AT_EPOCH": 1111, "BSTAR": 0, "MEAN_MOTION_DOT": 7e-07, "MEAN_MOTION_DDOT": 0}, "tle": {"line1": "1 54259U 22157A   25342.28349706  .00000070  00000+0  00000+0 0  9992", "line2": "2 54259   0.0620 100.9204 0000888  77.2749  11.1371  1.00268400 11110"}}, "geometry": {"type": "Point", "coordinates": [-6.518148442815765, -0.05177426231325425]}}, {"type": "Feature", "properties": {"norad_id": 59346, "name": "EUTELSAT 36D", "group": "eutelsat", "lat": 0.02828333428264408, "lon": 19.38014068787445, "alt_km": 35784.62696023843, "timestamp": "2025-12-08T17:43:04.566744+00:00", "meta": {"OBJECT_NAME": "EUTELSAT 36D", "OBJECT_ID": "2024-059A", "EPOCH": "2025-12-08T00:04:42.159936", "MEAN_MOTION": 1.00270249, "ECCENTRICITY": 7.397e-05, "INCLINATION": 0.0173, "RA_OF_ASC_NODE": 323.6814, "ARG_OF_PERICENTER": 0.9283, "MEAN_ANOMALY": 149.4537, "EPHEMERIS_TYPE": 0, "CLASSIFICATION_TYPE": "U", "NORAD_CAT_ID": 59346, "ELEMENT_SET_NO": 999, "REV_AT_EPOCH": 623, "BSTAR": 0, "MEAN_MOTION_DOT": 1.59e-06, "MEAN_MOTION_DDOT": 0}, "tle": {"line1": "1 59346U 24059A   25342.00326574  .00000159  00000+0  00000+0 0  9993", "line2": "2 59346   0.0173 323.6814 0000739   0.9283 149.4537  1.00270249  6237"}}, "geometry": {"type": "Point", "coordinates": [19.38014068787445, 0.02828333428264408]}}]}